#aV2024  4 13  0  0  0.00000000     288 DD+AD WGS84 FIT  NGA
## 2309 518400.00000000   300.00000000 60413 0.0000000000000
+   32     1  2  3  4  5  6  7  8  9 10 11 12 13 14 15 16 17
+         18 19 20 21 22 23 24 25 26 27 28 29 30 31 32  0  0
+          0  0  0  0  0  0  0  0  0  0  0  0  0  0  0  0  0
+          0  0  0  0  0  0  0  0  0  0  0  0  0  0  0  0  0
+          0  0  0  0  0  0  0  0  0  0  0  0  0  0  0  0  0
++         2  2  2  2  2  2  2  2  2  2  2  2  2  2  2  2  2
++         2  2  2  2  2  2  2  2  2  2  2  2  2  2  2  0  0
++         0  0  0  0  0  0  0  0  0  0  0  0  0  0  0  0  0
++         0  0  0  0  0  0  0  0  0  0  0  0  0  0  0  0  0
++         0  0  0  0  0  0  0  0  0  0  0  0  0  0  0  0  0
%c cc cc ccc ccc cccc cccc cccc cccc ccccc ccccc ccccc ccccc
%c cc cc ccc ccc cccc cccc cccc cccc ccccc ccccc ccccc ccccc
%f  0.0000000  0.000000000  0.00000000000  0.000000000000000
%f  0.0000000  0.000000000  0.00000000000  0.000000000000000
%i    0    0    0    0      0      0      0      0         0
%i    0    0    0    0      0      0      0      0         0
/*      NGA, ST. LOUIS,MO.                                  
/*   EPHEMERIS COMPUTED FROM 2 DAYS OF DATA                 
/*   EPOCHA v9 SMOOTHER                                     
/*   G2296 IERS2010 SATIGS SATAPC                           
*  2024  4 13 12 55  0.00000000
P  1   1224.632250 -16946.877323 -20674.732641    179.707204                    
V  1  21799.961201 -13205.924415  12649.264794      0.024593                    
P  2  11294.764743 -20149.698262 -12375.774800   -454.074857                    
V  2  14433.968968  -8530.555419  26323.008345      0.064663                    
P  3  -1200.406430 -16228.999329 -21167.052273    308.336637                    
V  3  24029.442802  11037.883667  -9775.131607      0.212367                    
P  4   1938.651181 -26063.628562  -4301.399522    337.819861                    
V  4   2990.699324   5386.311208 -31290.151150      0.087679                    
P  5 -13820.085117   9375.453285  20499.550126   -168.985284                    
V  5 -23955.284804 -11066.540532 -10905.228089     -0.013877                    
P  6 -21600.212424   2249.010230 -15304.053297    323.821257                    
V  6  15491.672073 -11828.782055 -23395.376011     -0.179409                    
P  7  -8377.683814 -13252.052685  21937.229992   -106.367723                    
V  7  22235.261565 -14803.161922   -931.817517     -0.084735                    
P  8   7068.184060 -21653.004281  13189.517758    119.325650                    
V  8   4574.023994  16711.672592  25204.345704      0.232693                    
P  9  -8081.431475 -23927.174014   8057.290014    158.922451                    
V  9   1726.709160 -10581.242420 -29453.854879      0.136059                    
P 10  24417.998234  10781.855606  -1325.249645     -8.423507                    
V 10    931.705453   2481.126047  31979.828307     -0.043586                    
P 11 -23669.906458  11303.317761  -3984.074279   -635.238802                    
V 11   2957.025679  -4915.702949 -31375.410729     -0.105752                    
P 12  -1483.751205  16200.226695 -21291.783363   -496.193930                    
V 12 -23213.991471 -12495.361601  -7941.276930     -0.034461                    
P 13 -13141.377867  14319.999999  17791.992239    642.380220                    
V 13   -108.005642 -23120.648587  18543.044327      0.031324                    
P 14 -22967.916699 -13411.519273   2024.251057    375.256513                    
V 14   3658.508396  -1597.246724  31159.717272      0.095263                    
P 15  -4373.852099  22573.795226  12625.754768    147.983250                    
V 15  -6933.929512 -15810.679708  25099.569638      0.040529                    
P 16  18373.467047  -4140.740137  18569.752114   -317.760404                    
V 16  20096.820565  13394.928114 -16159.053229      0.093843                    
P 17 -12533.694205 -14416.101681 -17967.107634    711.211529                    
V 17   1297.144216 -23726.505636  17874.101411     -0.003392                    
P 18   8549.608726  12228.763172  21986.375083   -593.719940                    
V 18 -23315.186684  15218.776570    417.762043     -0.066870                    
P 19 -14805.110571  -4845.549561 -21737.850212    467.621545                    
V 19   1054.080027 -27074.059633   4993.752194      0.053336                    
P 20 -22603.007148   3572.183353  13417.683368    380.334811                    
V 20 -15712.494046  -6976.449196 -24873.950590     -0.013992                    
P 21  15048.512288 -19542.578917  -7917.632208    127.379682                    
V 21  10685.967678  -4262.291464  30164.442486     -0.016168                    
P 22 -23824.483269  -9599.561374  -5705.619966      1.150171                    
V 22  -5194.328191  -6604.039644  30838.903834     -0.056318                    
P 23  18808.391706  15913.210088  10196.397214    199.975852                    
V 23 -12462.403938  -3545.362578  28399.938608      0.091897                    
P 24 -11831.430898  20831.663637 -11424.010140   -458.847495                    
V 24 -12946.589381   6476.041239  26582.120157     -0.044550                    
P 25   9744.693874  18087.950832 -17313.094728    493.661134                    
V 25 -20002.110040  -7381.791125 -19092.587139      0.008388                    
P 26  25026.865869   2599.800529   8905.716935    167.226134                    
V 26   9548.412119   7065.796098 -28046.910384     -0.050529                    
P 27  13029.373821 -11028.553125  19944.798791    -18.372303                    
V 27   3458.026286  25886.081209  12302.772726     -0.023309                    
P 28  20436.404862   -272.801351 -16973.777149   -201.694150                    
V 28 -16343.495409  14119.542523 -19923.947452     -0.150791                    
P 29   4240.921781  25391.012283   6247.029208   -602.002913                    
V 29  -2479.000923   8015.394465 -30734.504917      0.012228                    
P 30 -17856.544963  -5017.981279  19244.004257   -405.845112                    
V 30  19168.790293 -14746.572579  13774.082968      0.055523                    
P 31  23993.005755  -8135.930229  -8833.008716   -228.015302                    
V 31  -7759.838568   7907.492348 -28669.114665      0.000418                    
P 32  14403.079504  11129.799850 -19201.418950   -618.045003                    
V 32    856.688666  24782.310802  14647.808974     -0.004895                    
EOF
